[{"OBJECT_NAME":"STARLINK-11394 [DTC]","OBJECT_ID":"2024-231A","EPOCH":"2026-03-09T13:50:50.952768","MEAN_MOTION":15.6984224,"ECCENTRICITY":0.0001315,"INCLINATION":53.157,"RA_OF_ASC_NODE":101.8352,"ARG_OF_PERICENTER":82.4093,"MEAN_ANOMALY":277.7074,"EPHEMERIS_TYPE":0,"CLASSIFICATION_TYPE":"U","NORAD_CAT_ID":62218,"ELEMENT_SET_NO":999,"REV_AT_EPOCH":7339,"BSTAR":0.0019115,"MEAN_MOTION_DOT":0.00239088,"MEAN_MOTION_DDOT":0},{"OBJECT_NAME":"SILVERSAT","OBJECT_ID":"1998-067XV","EPOCH":"2026-03-09T06:21:04.624704","MEAN_MOTION":15.72057374,"ECCENTRICITY":0.00055278,"INCLINATION":51.6252,"RA_OF_ASC_NODE":67.052,"ARG_OF_PERICENTER":73.9744,"MEAN_ANOMALY":286.1863,"EPHEMERIS_TYPE":0,"CLASSIFICATION_TYPE":"U","NORAD_CAT_ID":66909,"ELEMENT_SET_NO":999,"REV_AT_EPOCH":1512,"BSTAR":0.0015444738,"MEAN_MOTION_DOT":0.00211631,"MEAN_MOTION_DDOT":0}]
